start=new Date('2022-10-01T00:00:00.000Z').valueOf();
sats=[{"RCS_SIZE":"LARGE","DECAY_DATE":null,"GP_ID":"213908053","MEAN_MOTION":"15.08855392","PERIAPSIS":"538.418","COUNTRY_CODE":"US","RA_OF_ASC_NODE":"22.3602","SEMIMAJOR_AXIS":"6917.833","INCLINATION":"53.2205","APOAPSIS":"540.979","MEAN_ANOMALY":"313.6005","CLASSIFICATION_TYPE":"U","LAUNCH_DATE":"2022-05-18","MEAN_ELEMENT_THEORY":"SGP4","NORAD_CAT_ID":"52693","ARG_OF_PERICENTER":"46.5141","REF_FRAME":"TEME","REV_AT_EPOCH":"2154","FILE":"3587966","SITE":"AFETR","TIME_SYSTEM":"UTC","MEAN_MOTION_DOT":"0.00004311","CENTER_NAME":"EARTH","BSTAR":"0.00028869000000","EPOCH":"2022-09-30T17:24:14.788224","TLE_LINE2":"2 52693  53.2205  22.3602 0001851  46.5141 313.6005 15.08855392 21541","ELEMENT_SET_NO":"999","TLE_LINE1":"1 52693U 22053AP  22273.72517116  .00004311  00000-0  28869-3 0  9998","OBJECT_NAME":"STARLINK-3946","PERIOD":"95.437","OBJECT_ID":"2022-053AP","OBJECT_TYPE":"PAYLOAD","EPHEMERIS_TYPE":"0","ECCENTRICITY":"0.00018510","MEAN_MOTION_DDOT":"0.0000000000000"},{"MEAN_ANOMALY":"300.8748","MEAN_ELEMENT_THEORY":"SGP4","LAUNCH_DATE":"2022-05-18","CLASSIFICATION_TYPE":"U","NORAD_CAT_ID":"52694","SEMIMAJOR_AXIS":"6917.861","APOAPSIS":"540.855","INCLINATION":"53.2199","COUNTRY_CODE":"US","RA_OF_ASC_NODE":"22.2869","RCS_SIZE":"LARGE","GP_ID":"213908390","DECAY_DATE":null,"MEAN_MOTION":"15.08846180","PERIAPSIS":"538.598","OBJECT_TYPE":"PAYLOAD","OBJECT_ID":"2022-053AQ","PERIOD":"95.437","EPHEMERIS_TYPE":"0","MEAN_MOTION_DDOT":"0.0000000000000","ECCENTRICITY":"0.00016310","EPOCH":"2022-09-30T17:45:26.937504","ELEMENT_SET_NO":"999","TLE_LINE2":"2 52694  53.2199  22.2869 0001631  59.2405 300.8748 15.08846180 21545","OBJECT_NAME":"STARLINK-4072","TLE_LINE1":"1 52694U 22053AQ  22273.73989511 -.00004277  00000-0 -25074-3 0  9990","CENTER_NAME":"EARTH","BSTAR":"-0.00025074000000","REF_FRAME":"TEME","ARG_OF_PERICENTER":"59.2405","REV_AT_EPOCH":"2154","SITE":"AFETR","FILE":"3587966","TIME_SYSTEM":"UTC","MEAN_MOTION_DOT":"-0.00004277"},{"TLE_LINE1":"1 52695U 22053AR  22273.86368822  .00011089  00000-0  71377-3 0  9995","OBJECT_NAME":"STARLINK-4041","EPOCH":"2022-09-30T20:43:42.662208","ELEMENT_SET_NO":"999","TLE_LINE2":"2 52695  53.2199  26.7382 0001915  48.9996 311.1161 15.08837306 21500","MEAN_MOTION_DDOT":"0.0000000000000","ECCENTRICITY":"0.00019150","OBJECT_TYPE":"PAYLOAD","PERIOD":"95.438","OBJECT_ID":"2022-053AR","EPHEMERIS_TYPE":"0","SITE":"AFETR","FILE":"3587966","MEAN_MOTION_DOT":"0.00011089","TIME_SYSTEM":"UTC","REF_FRAME":"TEME","ARG_OF_PERICENTER":"48.9996","REV_AT_EPOCH":"2150","BSTAR":"0.00071377000000","CENTER_NAME":"EARTH","SEMIMAJOR_AXIS":"6917.889","INCLINATION":"53.2199","APOAPSIS":"541.078","NORAD_CAT_ID":"52695","MEAN_ANOMALY":"311.1161","LAUNCH_DATE":"2022-05-18","MEAN_ELEMENT_THEORY":"SGP4","CLASSIFICATION_TYPE":"U","MEAN_MOTION":"15.08837306","PERIAPSIS":"538.429","RCS_SIZE":"LARGE","GP_ID":"213908637","DECAY_DATE":null,"RA_OF_ASC_NODE":"26.7382","COUNTRY_CODE":"US"},{"COUNTRY_CODE":"US","RA_OF_ASC_NODE":"22.3375","RCS_SIZE":"LARGE","DECAY_DATE":null,"GP_ID":"213909209","MEAN_MOTION":"15.08851566","PERIAPSIS":"538.423","MEAN_ANOMALY":"317.8041","CLASSIFICATION_TYPE":"U","MEAN_ELEMENT_THEORY":"SGP4","LAUNCH_DATE":"2022-05-18","NORAD_CAT_ID":"52696","SEMIMAJOR_AXIS":"6917.845","INCLINATION":"53.2199","APOAPSIS":"540.997","CENTER_NAME":"EARTH","BSTAR":"0.00015364000000","ARG_OF_PERICENTER":"42.3094","REF_FRAME":"TEME","REV_AT_EPOCH":"2154","FILE":"3587966","SITE":"AFETR","TIME_SYSTEM":"UTC","MEAN_MOTION_DOT":"0.00002159","PERIOD":"95.437","OBJECT_ID":"2022-053AS","OBJECT_TYPE":"PAYLOAD","EPHEMERIS_TYPE":"0","ECCENTRICITY":"0.00018610","MEAN_MOTION_DDOT":"0.0000000000000","EPOCH":"2022-09-30T17:29:32.249472","TLE_LINE2":"2 52696  53.2199  22.3375 0001861  42.3094 317.8041 15.08851566 21540","ELEMENT_SET_NO":"999","TLE_LINE1":"1 52696U 22053AS  22273.72884548  .00002159  00000-0  15364-3 0  9991","OBJECT_NAME":"STARLINK-4025"},{"MEAN_MOTION":"15.08860609","PERIAPSIS":"538.302","RCS_SIZE":"LARGE","DECAY_DATE":null,"GP_ID":"213908469","RA_OF_ASC_NODE":"26.9992","COUNTRY_CODE":"US","SEMIMAJOR_AXIS":"6917.817","APOAPSIS":"541.063","INCLINATION":"53.2207","NORAD_CAT_ID":"52697","MEAN_ANOMALY":"315.4546","CLASSIFICATION_TYPE":"U","MEAN_ELEMENT_THEORY":"SGP4","LAUNCH_DATE":"2022-05-18","FILE":"3587966","SITE":"AFETR","MEAN_MOTION_DOT":"0.00000274","TIME_SYSTEM":"UTC","REF_FRAME":"TEME","ARG_OF_PERICENTER":"44.6607","REV_AT_EPOCH":"2149","BSTAR":"0.00003533400000","CENTER_NAME":"EARTH","TLE_LINE1":"1 52697U 22053AT  22273.80477599  .00000274  00000-0  35334-4 0  9991","OBJECT_NAME":"STARLINK-4018","EPOCH":"2022-09-30T19:18:52.645536","ELEMENT_SET_NO":"999","TLE_LINE2":"2 52697  53.2207  26.9992 0001995  44.6607 315.4546 15.08860609 21495","ECCENTRICITY":"0.00019950","MEAN_MOTION_DDOT":"0.0000000000000","PERIOD":"95.436","OBJECT_ID":"2022-053AT","OBJECT_TYPE":"PAYLOAD","EPHEMERIS_TYPE":"0"},{"TIME_SYSTEM":"UTC","MEAN_MOTION_DOT":"0.00000433","FILE":"3587966","SITE":"AFETR","REV_AT_EPOCH":"2145","REF_FRAME":"TEME","ARG_OF_PERICENTER":"51.0239","BSTAR":"0.00004530700000","CENTER_NAME":"EARTH","TLE_LINE1":"1 52698U 22053AU  22273.61710387  .00000433  00000-0  45307-4 0  9994","OBJECT_NAME":"STARLINK-4030","ELEMENT_SET_NO":"999","TLE_LINE2":"2 52698  53.2192  27.8412 0001751  51.0239 309.0909 15.08848263 21459","EPOCH":"2022-09-30T14:48:37.774368","ECCENTRICITY":"0.00017510","MEAN_MOTION_DDOT":"0.0000000000000","EPHEMERIS_TYPE":"0","PERIOD":"95.437","OBJECT_ID":"2022-053AU","OBJECT_TYPE":"PAYLOAD","PERIAPSIS":"538.509","MEAN_MOTION":"15.08848263","DECAY_DATE":null,"GP_ID":"213908806","RCS_SIZE":"LARGE","RA_OF_ASC_NODE":"27.8412","COUNTRY_CODE":"US","INCLINATION":"53.2192","APOAPSIS":"540.931","SEMIMAJOR_AXIS":"6917.855","NORAD_CAT_ID":"52698","CLASSIFICATION_TYPE":"U","LAUNCH_DATE":"2022-05-18","MEAN_ELEMENT_THEORY":"SGP4","MEAN_ANOMALY":"309.0909"},{"SEMIMAJOR_AXIS":"6917.867","INCLINATION":"53.2148","APOAPSIS":"541.097","NORAD_CAT_ID":"52699","MEAN_ANOMALY":"322.5649","CLASSIFICATION_TYPE":"U","MEAN_ELEMENT_THEORY":"SGP4","LAUNCH_DATE":"2022-05-18","MEAN_MOTION":"15.08844291","PERIAPSIS":"538.367","RCS_SIZE":"LARGE","DECAY_DATE":null,"GP_ID":"213908222","RA_OF_ASC_NODE":"16.7682","COUNTRY_CODE":"US","OBJECT_NAME":"STARLINK-3987","TLE_LINE1":"1 52699U 22053AV  22273.85723354  .00004330  00000-0  28992-3 0  9999","EPOCH":"2022-09-30T20:34:24.977856","TLE_LINE2":"2 52699  53.2148  16.7682 0001973  37.5480 322.5649 15.08844291 21650","ELEMENT_SET_NO":"999","ECCENTRICITY":"0.00019730","MEAN_MOTION_DDOT":"0.0000000000000","OBJECT_ID":"2022-053AV","PERIOD":"95.437","OBJECT_TYPE":"PAYLOAD","EPHEMERIS_TYPE":"0","FILE":"3587966","SITE":"AFETR","MEAN_MOTION_DOT":"0.00004330","TIME_SYSTEM":"UTC","ARG_OF_PERICENTER":"37.5480","REF_FRAME":"TEME","REV_AT_EPOCH":"2165","BSTAR":"0.00028992000000","CENTER_NAME":"EARTH"},{"INCLINATION":"53.2193","APOAPSIS":"540.925","SEMIMAJOR_AXIS":"6917.814","LAUNCH_DATE":"2022-05-18","MEAN_ELEMENT_THEORY":"SGP4","CLASSIFICATION_TYPE":"U","MEAN_ANOMALY":"313.8121","NORAD_CAT_ID":"52700","GP_ID":"213908953","DECAY_DATE":null,"RCS_SIZE":"LARGE","PERIAPSIS":"538.433","MEAN_MOTION":"15.08861760","COUNTRY_CODE":"US","RA_OF_ASC_NODE":"26.9792","TLE_LINE2":"2 52700  53.2193  26.9792 0001801  46.3020 313.8121 15.08861760 21496","ELEMENT_SET_NO":"999","EPOCH":"2022-09-30T19:24:10.571616","OBJECT_NAME":"STARLINK-4034","TLE_LINE1":"1 52700U 22053AW  22273.80845569  .00001216  00000-0  94423-4 0  9993","EPHEMERIS_TYPE":"0","OBJECT_TYPE":"PAYLOAD","PERIOD":"95.436","OBJECT_ID":"2022-053AW","MEAN_MOTION_DDOT":"0.0000000000000","ECCENTRICITY":"0.00018010","REV_AT_EPOCH":"2149","ARG_OF_PERICENTER":"46.3020","REF_FRAME":"TEME","MEAN_MOTION_DOT":"0.00001216","TIME_SYSTEM":"UTC","SITE":"AFETR","FILE":"3587966","CENTER_NAME":"EARTH","BSTAR":"0.00009442300000"},{"MEAN_MOTION":"15.08848268","PERIAPSIS":"538.331","RCS_SIZE":"LARGE","DECAY_DATE":null,"GP_ID":"213848580","RA_OF_ASC_NODE":"13.0423","COUNTRY_CODE":"US","SEMIMAJOR_AXIS":"6917.855","APOAPSIS":"541.109","INCLINATION":"53.2194","NORAD_CAT_ID":"52701","MEAN_ANOMALY":"316.8668","CLASSIFICATION_TYPE":"U","MEAN_ELEMENT_THEORY":"SGP4","LAUNCH_DATE":"2022-05-18","FILE":"3587581","SITE":"AFETR","TIME_SYSTEM":"UTC","MEAN_MOTION_DOT":"-0.00001127","ARG_OF_PERICENTER":"43.2482","REF_FRAME":"TEME","REV_AT_EPOCH":"2125","BSTAR":"-0.00005270600000","CENTER_NAME":"EARTH","OBJECT_NAME":"STARLINK-4003","TLE_LINE1":"1 52701U 22053AX  22273.57520042 -.00001127  00000-0 -52706-4 0  9995","EPOCH":"2022-09-30T13:48:17.316288","TLE_LINE2":"2 52701  53.2194  13.0423 0002008  43.2482 316.8668 15.08848268 21255","ELEMENT_SET_NO":"999","ECCENTRICITY":"0.00020080","MEAN_MOTION_DDOT":"0.0000000000000","OBJECT_ID":"2022-053AX","PERIOD":"95.437","OBJECT_TYPE":"PAYLOAD","EPHEMERIS_TYPE":"0"},{"INCLINATION":"53.2208","APOAPSIS":"540.817","SEMIMAJOR_AXIS":"6917.823","NORAD_CAT_ID":"52702","CLASSIFICATION_TYPE":"U","LAUNCH_DATE":"2022-05-18","MEAN_ELEMENT_THEORY":"SGP4","MEAN_ANOMALY":"309.0912","PERIAPSIS":"538.559","MEAN_MOTION":"15.08858661","DECAY_DATE":null,"GP_ID":"213908391","RCS_SIZE":"LARGE","RA_OF_ASC_NODE":"27.0194","COUNTRY_CODE":"US","TLE_LINE1":"1 52702U 22053AY  22273.80111645  .00018295  00000-0  11640-2 0  9999","OBJECT_NAME":"STARLINK-4033","ELEMENT_SET_NO":"999","TLE_LINE2":"2 52702  53.2208  27.0194 0001632  51.0226 309.0912 15.08858661 21497","EPOCH":"2022-09-30T19:13:36.461280","ECCENTRICITY":"0.00016320","MEAN_MOTION_DDOT":"0.0000000000000","EPHEMERIS_TYPE":"0","OBJECT_ID":"2022-053AY","PERIOD":"95.436","OBJECT_TYPE":"PAYLOAD","MEAN_MOTION_DOT":"0.00018295","TIME_SYSTEM":"UTC","FILE":"3587966","SITE":"AFETR","REV_AT_EPOCH":"2149","REF_FRAME":"TEME","ARG_OF_PERICENTER":"51.0226","BSTAR":"0.00116400000000","CENTER_NAME":"EARTH"}];
